Q-SAT                   
1 46026U 20054B   24124.51723842  .00169391  00000+0  87704-3 0  9991
2 46026  97.3352 219.7382 0000727 101.4790 258.6559 15.80588734209414
TIANTUO 5               
1 46234U 20058C   24124.49578902  .00017392  00000+0  47209-3 0  9997
2 46234  97.3040 182.6934 0013191 171.0474 189.1009 15.37572832205914
TYVAK-0172              
1 46267U 20059C   24123.56154608  .00010433  00000+0  77538-3 0  9991
2 46267  97.8312 325.6322 0004029 114.8626 245.3018 15.03189345199891
ION-MK01                
1 46274U 20061C   24123.16166864  .00011063  00000+0  39651-3 0  9999
2 46274  97.3024 187.8747 0003544 231.6930 128.3991 15.28892080202945
UPMSAT-2                
1 46276U 20061E   24123.73749443  .00014694  00000+0  47510-3 0  9990
2 46276  97.3004 190.5630 0000368 126.9362 233.1913 15.32173469203211
NEMO-HD                 
1 46277U 20061F   24124.53768029  .00007063  00000+0  28257-3 0  9990
2 46277  97.3005 188.2989 0000427  55.5392 304.5886 15.25382603203137
SIMBA                   
1 46279U 20061H   24124.18464224  .00075894  00000+0  12997-2 0  9993
2 46279  97.3514 196.1849 0000584 293.0200  67.0990 15.50970945202943
TRISAT                  
1 46280U 20061J   24124.19366916  .00057018  00000+0  11900-2 0  9996
2 46280  97.3383 194.0500 0000931 359.0884   1.0363 15.45347302202869
DIDO 3                  
1 46284U 20061N   24124.17430848  .00021747  00000+0  72315-3 0  9992
2 46284  97.3519 190.3127 0002463  57.0873 303.0605 15.31185424202542
FLOCK 4V-14             
1 46286U 20061Q   24123.76077409  .00031778  00000+0  76442-3 0  9998
2 46286  97.3578 197.0184 0002133  22.6171 337.5170 15.41239970202961
AMICALSAT               
1 46287U 20061R   24124.41302487  .00030149  00000+0  91680-3 0  9991
2 46287  97.3526 191.7530 0001898  74.9204 285.2249 15.33984264202695
3CAT-5A                 
1 46292U 20061W   24123.43147318  .00007960  00000+0  36552-3 0  9990
2 46292  97.3520 185.4067 0003295  41.3087 318.8398 15.20653444202170
3CAT-5B                 
1 46293U 20061X   24124.41387311  .00008680  00000+0  39580-3 0  9993
2 46293  97.3523 186.6566 0003080  35.6222 324.5219 15.20869534202311
OSM-1 CICERO            
1 46294U 20061Y   24124.45876771  .00020109  00000+0  71362-3 0  9995
2 46294  97.3540 190.8150 0001944  26.7708 333.3632 15.29086234202611
FLOCK 4V-10             
1 46296U 20061AA  24124.16432725  .00027749  00000+0  67959-3 0  9996
2 46296  97.3586 197.6279 0000933  61.0532 299.0808 15.40724567202999
FLOCK 4V-13             
1 46297U 20061AB  24124.47342692  .00030671  00000+0  77110-3 0  9992
2 46297  97.3573 197.7895 0000531 131.1573 228.9719 15.39906284203011
TTU100                  
1 46312U 20061AS  24124.46986000  .00087416  00000+0  13748-2 0  9991
2 46312  97.3569 199.5443 0002213 248.4525 111.6492 15.53310357203147
KEPLER-2 (TARS)         
1 46319U 20061AZ  24124.19378305  .00037044  00000+0  10256-2 0  9994
2 46319  97.3552 194.3995 0001186 216.1776 143.9388 15.36891358202843
NAPA-1                  
1 46320U 20061BA  24124.53800851  .00006201  00000+0  27035-3 0  9995
2 46320  97.3571 188.8576 0000632 321.7614  38.3578 15.22527598202506
JILIN-1 GAOFEN 3B       
1 46454U 20065A   24124.53387855  .00014095  00000+0  57358-3 0  9992
2 46454  97.3465 170.2515 0010815  25.1025 335.0736 15.24568202200622
JILIN-1 GAOFEN 3E       
1 46457U 20065D   24124.55056762  .00013226  00000+0  54179-3 0  9990
2 46457  97.3473 170.3607 0010299  45.4350 314.7726 15.24365941200627
JILIN-1 GAOFEN 3F       
1 46458U 20065E   24124.52492581  .00013090  00000+0  53591-3 0  9997
2 46458  97.3408 169.1964 0010305  35.1286 325.0629 15.24386139200629
JILIN-1 GAOFEN 3G       
1 46459U 20065F   24124.57074082  .00012653  00000+0  51640-3 0  9992
2 46459  97.3522 171.4379 0011221  39.3561 320.8490 15.24492423200637
JILIN-1 GAOFEN 3H       
1 46460U 20065G   24124.54392550  .00012942  00000+0  53277-3 0  9993
2 46460  97.3419 169.3989 0010540  36.8621 323.3339 15.24200889200621
JILIN-1 GAOFEN 3J       
1 46462U 20065J   24124.54709692  .00013433  00000+0  54749-3 0  9995
2 46462  97.3461 170.3395 0010106  34.6407 325.5487 15.24534347200637
HAIYANG-2C              
1 46469U 20066A   24124.52732111  .00000016  00000+0  88736-4 0  9990
2 46469  65.9974 344.0155 0012262 249.0957 110.8799 13.83375417182628
HJ-2A                   
1 46478U 20067A   24124.51417179  .00000071  00000+0  17420-4 0  9997
2 46478  97.9405 207.2424 0000539 154.5360 205.5877 14.76461194193940
HJ-2B                   
1 46479U 20067B   24124.48184089  .00001215  00000+0  18175-3 0  9993
2 46479  97.9445 207.7508 0002301  55.3165 304.8261 14.76466354193946
GONETS-M 17             
1 46486U 20068A   24124.49906376  .00000040  00000+0  22177-3 0  9996
2 46486  82.4933 109.4230 0021554 286.3305  73.5405 12.42868357163103
GONETS-M 18             
1 46487U 20068B   24124.54639099  .00000026  00000+0  11476-3 0  9992
2 46487  82.4888 108.8086 0018830 282.5639  77.3334 12.42887829163115
GONETS-M 19             
1 46488U 20068C   24123.87766825  .00000049  00000+0  28231-3 0  9998
2 46488  82.4911 109.5156 0012710 301.7803  58.2038 12.42882347163048
MEZNSAT                 
1 46489U 20068D   24123.86848697  .00021027  00000+0  86125-3 0  9991
2 46489  97.8069  87.7940 0015161  92.6524 267.6447 15.24218131197864
YARILO 1                
1 46490U 20068E   24124.46130087  .00028881  00000+0  11031-2 0  9995
2 46490  97.8086  89.4049 0014396  90.9340 269.3547 15.26496816198018
YARILO 2                
1 46491U 20068F   24123.88970603  .00023813  00000+0  92040-3 0  9997
2 46491  97.8078  88.5147 0015277  94.1525 266.1459 15.26132048197907
LACUNASAT-3             
1 46492U 20068G   24124.49033017  .00022057  00000+0  80160-3 0  9994
2 46492  97.8061  89.9156 0014305  89.8927 270.3950 15.28199187198030
DEKART                  
1 46493U 20068H   24123.86486431  .00007990  00000+0  44176-3 0  9993
2 46493  97.8126  83.2362 0017169 108.4002 251.9097 15.14039501197531
NORBI                   
1 46494U 20068J   24124.53314027  .00008219  00000+0  43336-3 0  9992
2 46494  97.8124  84.6707 0016472 104.9498 255.3559 15.15729269197689
SALSAT                  
1 46495U 20068K   24124.42788590  .00007865  00000+0  45629-3 0  9994
2 46495  97.8125  82.6309 0016107 105.0797 255.2216 15.12331457197545
ICEYE-X6                
1 46497U 20068M   24124.41797738  .00006924  00000+0  55064-3 0  9998
2 46497  97.9333  79.5525 0004816 150.8686 209.2807 15.00746144196952
LEMUR-2-SLICERS         
1 46500U 20068Q   24124.14705940  .00055048  00000+0  13616-2 0  9994
2 46500  97.7846  90.9622 0009688  98.6967 261.5376 15.40224850198090
LEMUR-2-SUSURRUS        
1 46502U 20068S   24123.88793537  .00054632  00000+0  13533-2 0  9991
2 46502  97.7884  90.7674 0010076  99.7705 260.4678 15.40178131198053
NETSAT-4                
1 46504U 20068U   24124.14908377  .00009742  00000+0  53874-3 0  9998
2 46504  97.8029  80.1185 0011365 146.0249 214.1712 15.14037979197350
NETSAT-3                
1 46505U 20068V   24123.58865513  .00008675  00000+0  48726-3 0  9994
2 46505  97.7998  79.1068 0010299 154.5215 205.6526 15.13529383197267
NETSAT-1                
1 46506U 20068W   24124.45214844  .00007107  00000+0  41602-3 0  9992
2 46506  97.8021  79.5609 0008707 160.4824 199.6740 15.12122849197360
NETSAT-2                
1 46507U 20068X   24124.36183614  .00011269  00000+0  62433-3 0  9992
2 46507  97.8008  79.9835 0007902 164.0072 196.1409 15.13961253197334
FLOCK 4V-20             
1 46612U 20061BJ  24124.46984583  .00020813  00000+0  50777-3 0  9990
2 46612  97.3196 199.1053 0003586 190.5970 169.5202 15.40892911197728
TIANQI-6                
1 46810U 20076D   24124.31607957  .00004496  00000+0  38589-3 0  9993
2 46810  35.0013  91.0148 0014120 224.9283 135.0281 14.96874175192064
KSM1-C                  
1 46906U 20081B   24123.87929246  .00006246  00000+0  40067-3 0  9992
2 46906  36.8935 100.9724 0005977 250.2042 109.8056 15.08185862191371
KSM1-D                  
1 46907U 20081C   24124.37989821  .00007077  00000+0  45697-3 0  9991
2 46907  36.8977  98.8635 0007874 268.4005  91.5836 15.07872035191447
KSM1-A                  
1 46912U 20081H   24124.34033477  .00007105  00000+0  45618-3 0  9996
2 46912  36.8969  97.5477 0004775 317.4229  42.6144 15.08096186191450
R2                      
1 46913U 20081J   24124.19083404  .00006896  00000+0  44117-3 0  9994
2 46913  36.9010  96.7730 0011735 285.2293  74.7153 15.08197123190772
KSM1-B                  
1 46914U 20081K   24124.32264393  .00006750  00000+0  43645-3 0  9992
2 46914  36.9015  98.6831 0009890 288.8781  71.0890 15.07835951190710
GONETS-M 20             
1 47227U 20091A   24124.53899008  .00000041  00000+0  22406-3 0  9990
2 47227  82.5049  63.9276 0022172  71.5343 288.8144 12.42872585154977
GONETS-M 21             
1 47228U 20091B   24124.51258137  .00000031  00000+0  15035-3 0  9990
2 47228  82.4974  63.1329 0016189  84.2048 276.0877 12.42884220154969
GONETS-M 22             
1 47229U 20091C   24124.48646403  .00000031  00000+0  15319-3 0  9999
2 47229  82.5030  63.6867 0023154  65.7311 294.6184 12.42879819154957
HAISI 1                 
1 47297U 20102B   24124.53702497  .00055908  00000+0  79737-3 0  9996
2 47297  97.4248 232.7113 0003111 181.4589 178.6657 15.56120583187323
UVSQ-SAT                
1 47438U 21006AB  24124.43000275  .00045271  00000+0  10278-2 0  9997
2 47438  97.3316 184.4629 0005652  28.0492 332.1059 15.42890801181825
YUSAT-1                 
1 47439U 21006AC  24124.14107822  .00092974  00000+0  12844-2 0  9995
2 47439  97.3273 187.7824 0002930 356.7714   3.3522 15.56841075182013
2021-006AE              
1 47441U 21006AE  24124.48719934  .00187670  00000+0  15752-2 0  9997
2 47441  97.3019 188.8940 0002197 318.4577  41.6518 15.69338890182168
